H1 CPF 01  gfz 2022 09 26 12  7692 tandemx   
H2 1003001  6202 36605    2022 09 26 12 59 42 2022 10 01 00 00 42   120 1 1  0 0 0
H9
10 0 59851  85662.000000  0    -804889.150   5932828.875   3398532.701
10 0 59851  85782.000000  0    -667822.481   6346746.581   2586167.012
10 0 59851  85902.000000  0    -512830.146   6647135.441   1728259.610
10 0 59851  86022.000000  0    -344658.790   6828477.658    839918.966
10 0 59851  86142.000000  0    -168363.414   6887444.441    -63209.565
10 0 59851  86262.000000  0      10821.944   6822960.710   -965227.408
10 0 59851  86382.000000  0     187617.794   6636223.326  -1850273.068
10 0 59852    102.000000  0     356831.836   6330671.445  -2702808.930
10 0 59852    222.000000  0     513488.447   5911914.139  -3507898.648
10 0 59852    342.000000  0     652952.601   5387616.616  -4251471.246
10 0 59852    462.000000  0     771044.836   4767347.403  -4920566.013
10 0 59852    582.000000  0     864144.569   4062391.457  -5503553.402
10 0 59852    702.000000  0     929279.350   3285534.608  -5990329.024
10 0 59852    822.000000  0     964197.911   2450823.834  -6372478.777
10 0 59852    942.000000  0     967426.649   1573309.082  -6643412.080
10 0 59852   1062.000000  0     938308.063    668772.915  -6798464.709
10 0 59852   1182.000000  0     877021.043   -246549.886  -6834971.036
10 0 59852   1302.000000  0     784582.760  -1156258.398  -6752304.354
10 0 59852   1422.000000  0     662831.721  -2044071.852  -6551884.699
10 0 59852   1542.000000  0     514393.369  -2894112.166  -6237157.628
10 0 59852   1662.000000  0     342627.320  -3691183.627  -5813543.860
10 0 59852   1782.000000  0     151557.226  -4421043.213  -5288354.364
10 0 59852   1902.000000  0     -54214.645  -5070656.122  -4670675.384
10 0 59852   2022.000000  0    -269608.332  -5628434.346  -3971223.004
10 0 59852   2142.000000  0    -489180.347  -6084452.792  -3202166.975
10 0 59852   2262.000000  0    -707248.750  -6430637.129  -2376926.266
10 0 59852   2382.000000  0    -918026.776  -6660920.105  -1509939.264
10 0 59852   2502.000000  0   -1115761.593  -6771360.908   -616410.399
10 0 59852   2622.000000  0   -1294874.839  -6760222.899    287960.731
10 0 59852   2742.000000  0   -1450101.584  -6628007.862   1187261.719
10 0 59852   2862.000000  0   -1576624.374  -6377445.713   2065655.823
10 0 59852   2982.000000  0   -1670198.207  -6013438.783   2907670.365
10 0 59852   3102.000000  0   -1727263.235  -5542961.739   3698477.749
10 0 59852   3222.000000  0   -1745041.709  -4974920.355   4424162.633
10 0 59852   3342.000000  0   -1721617.372  -4319973.990   5071968.961
10 0 59852   3462.000000  0   -1655996.729  -3590327.016   5630524.827
10 0 59852   3582.000000  0   -1548149.347  -2799491.096   6090040.339
10 0 59852   3702.000000  0   -1399025.966  -1962026.861   6442472.974
10 0 59852   3822.000000  0   -1210555.569  -1093271.948   6681661.963
10 0 59852   3942.000000  0    -985622.413   -209057.093   6803430.628
10 0 59852   4062.000000  0    -728022.767    674582.996   6805653.979
10 0 59852   4182.000000  0    -442400.782   1541699.696   6688294.141
10 0 59852   4302.000000  0    -134164.584   2376718.110   6453401.032
10 0 59852   4422.000000  0     190615.672   3164716.669   6105078.447
10 0 59852   4542.000000  0     525325.574   3891694.724   5649416.907
10 0 59852   4662.000000  0     862938.600   4544824.885   5094392.755
10 0 59852   4782.000000  0    1196161.056   5112684.995   4449734.490
10 0 59852   4902.000000  0    1517586.140   5585465.230   3726756.544
10 0 59852   5022.000000  0    1819854.313   5955146.412   2938166.428
10 0 59852   5142.000000  0    2095819.450   6215647.530   2097840.698
10 0 59852   5262.000000  0    2338710.819   6362933.629   1220576.335
10 0 59852   5382.000000  0    2542291.201   6395082.517    321823.167
10 0 59852   5502.000000  0    2701004.688   6312308.156   -582595.641
10 0 59852   5622.000000  0    2810112.018   6116942.495  -1476770.115
10 0 59852   5742.000000  0    2865809.846   5813374.561  -2344991.158
10 0 59852   5862.000000  0    2865330.657   5407949.271  -3172033.253
10 0 59852   5982.000000  0    2807020.813   4908827.474  -3943426.446
10 0 59852   6102.000000  0    2690394.346   4325811.676  -4645709.910
10 0 59852   6222.000000  0    2516162.029   3670143.943  -5266663.151
10 0 59852   6342.000000  0    2286236.348   2954281.098  -5795511.391
10 0 59852   6462.000000  0    2003712.558   2191651.952  -6223103.412
10 0 59852   6582.000000  0    1672825.773   1396401.860  -6542058.194
10 0 59852   6702.000000  0    1298887.075    583131.078  -6746880.499
10 0 59852   6822.000000  0     888198.288   -233369.687  -6834046.711
10 0 59852   6942.000000  0     447945.908  -1038383.494  -6802058.669
10 0 59852   7062.000000  0     -13922.231  -1817525.749  -6651464.863
10 0 59852   7182.000000  0    -488835.999  -2556993.441  -6384852.409
10 0 59852   7302.000000  0    -967757.986  -3243805.510  -6006809.126
10 0 59852   7422.000000  0   -1441350.793  -3866028.641  -5523852.051
10 0 59852   7542.000000  0   -1900154.445  -4412985.069  -4944326.537
10 0 59852   7662.000000  0   -2334772.319  -4875441.145  -4278274.236
10 0 59852   7782.000000  0   -2736062.033  -5245770.971  -3537269.293
10 0 59852   7902.000000  0   -3095326.561  -5518091.047  -2734225.514
10 0 59852   8022.000000  0   -3404501.865  -5688363.726  -1883177.146
10 0 59852   8142.000000  0   -3656337.209  -5754466.396   -999035.483
10 0 59852   8262.000000  0   -3844562.622  -5716223.196    -97324.781
10 0 59852   8382.000000  0   -3964038.496  -5575397.446    806096.390
10 0 59852   8502.000000  0   -4010883.932  -5335644.915   1695322.368
10 0 59852   8622.000000  0   -3982579.874  -5002427.949   2554690.120
10 0 59852   8742.000000  0   -3878044.107  -4582892.982   3369063.463
10 0 59852   8862.000000  0   -3697676.990  -4085715.798   4124106.448
10 0 59852   8982.000000  0   -3443376.317  -3520917.461   4806540.588
10 0 59852   9102.000000  0   -3118521.306  -2899655.656   5404379.273
10 0 59852   9222.000000  0   -2727926.906  -2233998.513   5907136.004
10 0 59852   9342.000000  0   -2277769.475  -1536686.096   6306004.389
10 0 59852   9462.000000  0   -1775485.874   -820882.967   6594008.677
10 0 59852   9582.000000  0   -1229645.847    -99925.787   6766119.575
10 0 59852   9702.000000  0    -649804.010    612924.705   6819334.090
10 0 59852   9822.000000  0     -46333.040   1304726.388   6752725.319
10 0 59852   9942.000000  0     569761.678   1963090.522   6567457.958
10 0 59852  10062.000000  0    1187042.522   2576403.705   6266768.775
10 0 59852  10182.000000  0    1793851.103   3134032.576   5855913.152
10 0 59852  10302.000000  0    2378527.783   3626510.408   5342079.364
10 0 59852  10422.000000  0    2929637.041   4045702.504   4734269.378
10 0 59852  10542.000000  0    3436193.798   4384945.304   4043145.325
10 0 59852  10662.000000  0    3887883.855   4639156.787   3280847.285
10 0 59852  10782.000000  0    4275279.576   4804919.330   2460783.286
10 0 59852  10902.000000  0    4590040.329   4880526.708   1597388.597
10 0 59852  11022.000000  0    4825091.643   4865997.284    705868.665
10 0 59852  11142.000000  0    4974785.186   4763053.276   -198076.177
10 0 59852  11262.000000  0    5035027.304   4575062.763  -1098537.423
10 0 59852  11382.000000  0    5003376.411   4306948.426  -1979686.160
10 0 59852  11502.000000  0    4879108.268   3965066.312  -2826058.235
10 0 59852  11622.000000  0    4663246.159   3557057.060  -3622830.855
10 0 59852  11742.000000  0    4358555.163   3091674.344  -4356084.309
10 0 59852  11862.000000  0    3969502.004   2578594.528  -5013043.483
10 0 59852  11982.000000  0    3502182.928   2028212.263  -5582294.847
10 0 59852  12102.000000  0    2964220.872   1451427.955  -6053976.401
10 0 59852  12222.000000  0    2364634.169    859431.588  -6419937.727
10 0 59852  12342.000000  0    1713681.213    263487.400  -6673868.510
10 0 59852  12462.000000  0    1022685.215   -325276.344  -6811396.821
10 0 59852  12582.000000  0     303838.484   -896071.145  -6830157.713
10 0 59852  12702.000000  0    -430009.199  -1438641.023  -6729827.492
10 0 59852  12822.000000  0   -1165573.840  -1943441.205  -6512128.705
10 0 59852  12942.000000  0   -1889372.154  -2401802.713  -6180804.824
10 0 59852  13062.000000  0   -2587963.158  -2806079.542  -5741562.217
10 0 59852  13182.000000  0   -3248193.190  -3149776.115  -5201982.581
10 0 59852  13302.000000  0   -3857443.272  -3427654.940  -4571404.556
10 0 59852  13422.000000  0   -4403872.569  -3635820.288  -3860772.535
10 0 59852  13542.000000  0   -4876652.770  -3771776.202  -3082456.457
10 0 59852  13662.000000  0   -5266189.345  -3834457.880  -2250043.352
10 0 59852  13782.000000  0   -5564323.555  -3824234.575  -1378102.975
10 0 59852  13902.000000  0   -5764509.826  -3742883.284   -481932.236
10 0 59852  14022.000000  0   -5861964.031  -3593533.729    422717.176
10 0 59852  14142.000000  0   -5853778.709  -3380585.801   1319922.816
10 0 59852  14262.000000  0   -5739000.004  -3109600.165   2193881.966
10 0 59852  14382.000000  0   -5518663.907  -2787164.449   3029199.051
10 0 59852  14502.000000  0   -5195793.010  -2420740.740   3811164.228
10 0 59852  14622.000000  0   -4775352.621  -2018496.346   4526019.167
10 0 59852  14742.000000  0   -4264167.226  -1589122.390   5161201.032
10 0 59852  14862.000000  0   -3670802.376  -1141647.152   5705561.445
10 0 59852  14982.000000  0   -3005414.465   -685246.897   6149559.909
10 0 59852  15102.000000  0   -2279569.294   -229057.112   6485427.323
10 0 59852  15222.000000  0   -1506034.054    218010.190   6707294.977
10 0 59852  15342.000000  0    -698549.480    647438.513   6811290.301
10 0 59852  15462.000000  0     128414.948   1051267.820   6795600.192
10 0 59852  15582.000000  0     959919.700   1422241.439   6660500.530
10 0 59852  15702.000000  0    1780824.365   1753936.767   6408351.592
99
